[{"OBJECT_NAME":"ONEWEB-0143","OBJECT_ID":"2020-100AH","EPOCH":"2026-03-09T21:43:43.746816","MEAN_MOTION":13.12443148,"ECCENTRICITY":0.00018052,"INCLINATION":87.9003,"RA_OF_ASC_NODE":10.3715,"ARG_OF_PERICENTER":78.3878,"MEAN_ANOMALY":281.7453,"EPHEMERIS_TYPE":0,"CLASSIFICATION_TYPE":"U","NORAD_CAT_ID":47289,"ELEMENT_SET_NO":999,"REV_AT_EPOCH":25162,"BSTAR":0.0013808909,"MEAN_MOTION_DOT":5.1e-6,"MEAN_MOTION_DDOT":0},{"OBJECT_NAME":"SL-14 DEB","OBJECT_ID":"1991-056AV","EPOCH":"2026-03-09T13:43:49.650816","MEAN_MOTION":13.05278101,"ECCENTRICITY":0.0183518,"INCLINATION":82.5867,"RA_OF_ASC_NODE":273.1914,"ARG_OF_PERICENTER":27.3818,"MEAN_ANOMALY":333.6825,"EPHEMERIS_TYPE":0,"CLASSIFICATION_TYPE":"U","NORAD_CAT_ID":45307,"ELEMENT_SET_NO":999,"REV_AT_EPOCH":28548,"BSTAR":0.014449,"MEAN_MOTION_DOT":5.096e-5,"MEAN_MOTION_DDOT":0}]
